ONEWEB-0210             
1 48787U 21045W   24259.89021998  .00000148  00000+0  35991-3 0  9996
2 48787  87.9090  26.3965 0001521 129.5077 230.6188 13.15545762160262
ONEWEB-0214             
1 48788U 21045X   24259.89972509  .00000027  00000+0  37441-4 0  9999
2 48788  87.9089  26.3834 0001328 116.4774 243.6492 13.15545307160234
ONEWEB-0221             
1 48789U 21045Y   24259.90608239  .00000219  00000+0  54718-3 0  9996
2 48789  87.9094  26.4024 0001877 105.4488 254.6849 13.15544561160321
ONEWEB-0213             
1 48790U 21045Z   24259.89497336  .00000032  00000+0  51093-4 0  9997
2 48790  87.9091  26.4167 0001849 111.1627 248.9701 13.15545791160381
ONEWEB-0212             
1 48791U 21045AA  24259.87200894  .00000117  00000+0  27700-3 0  9998
2 48791  87.9091  26.4057 0001832  97.8611 262.2727 13.15546680160379
ONEWEB-0227             
1 48792U 21045AB  24259.87121268  .00000083  00000+0  18694-3 0  9990
2 48792  87.9091  26.4206 0001839 103.8126 256.3209 13.15546098160329
ONEWEB-0226             
1 48793U 21045AC  24259.86485429 -.00000368  00000+0 -10113-2 0  9997
2 48793  87.9090  26.4278 0001623 118.2282 241.9012 13.15547373161412
ONEWEB-0224             
1 48794U 21045AD  24259.90448866  .00000012  00000+0 -15819-5 0  9993
2 48794  87.9095  26.4448 0002782 104.4671 255.6769 13.15546631160228
